DELTA 2 R/B(1)          
1 20453U 90008B   26052.00012549  .00061660  00000+0  78405-3 0  9992
2 20453  35.6040 284.1803 0088871 103.0443 258.0231 15.53535456923532
COSMOS 2058             
1 20465U 90010A   26052.02872987  .00003870  00000+0  22884-3 0  9999
2 20465  82.4665  63.8414 0010645  40.0076 320.1936 15.11158688939727
SL-14 R/B               
1 20466U 90010B   26052.09496455  .00000347  00000+0  39178-4 0  9990
2 20466  82.5006 282.9793 0019793 359.0835   1.0340 14.83553623926020
SL-14 R/B               
1 20511U 90018B   26051.96177350  .00000415  00000+0  49099-4 0  9993
2 20511  82.5179 238.7275 0017150 143.1709 217.0687 14.82124985920103
HST                     
1 20580U 90037B   26051.51930021  .00006899  00000+0  22882-3 0  9995
2 20580  28.4685 157.1051 0001109 279.2471  80.7999 15.29189194770682
SL-16 R/B               
1 20625U 90046B   26052.15533413  .00000164  00000+0  10916-3 0  9994
2 20625  71.0018 332.6378 0015557 322.4271  37.5763 14.15014224846058
COSMOS 2084             
1 20663U 90055A   26052.11768326  .00002531  00000+0  18827-3 0  9994
2 20663  62.7909  32.0925 0019631 186.2771 173.8086 15.05533626933829
SL-6 R/B(2)             
1 20666U 90055D   26052.14433580  .00001886  00000+0  15156-3 0  9995
2 20666  62.7837 310.1134 0022274 342.6835  17.3501 15.03508538935705
SL-8 R/B                
1 20775U 90078B   26052.04183703  .00012926  00000+0  37889-3 0  9993
2 20775  82.8997 266.2774 0365723  69.8267 294.1890 14.88469347806825
SL-8 R/B                
1 21088U 91006B   26051.93015515  .00000036  00000+0  20473-4 0  9996
2 21088  82.9453 182.5047 0023735  83.1874  38.6838 13.77492442761766
OKEAN-3                 
1 21397U 91039A   26051.85487381  .00003613  00000+0  25440-3 0  9992
2 21397  82.5211 353.1484 0015324  33.2756 326.9431 15.04672300862509
COSMOS 2151             
1 21422U 91042A   26052.14041161  .00001660  00000+0  13099-3 0  9997
2 21422  82.4945  99.6429 0014015 113.2012 247.0690 15.00037086860715
